CCSDS_OMM_VERS = 2.0
CREATION_DATE  = 
ORIGINATOR     = 

OBJECT_NAME    = STARLINK-36719
OBJECT_ID      = 2026-022A
CENTER_NAME    = EARTH
REF_FRAME      = TEME
TIME_SYSTEM    = UTC
MEAN_ELEMENT_THEORY = SGP/SGP4

EPOCH          = 2026-02-23T13:25:44.842656
MEAN_MOTION    = 15.75428928
ECCENTRICITY   = .0002063
INCLINATION    = 97.2832
RA_OF_ASC_NODE = 87.8264
ARG_OF_PERICENTER = 80.4239
MEAN_ANOMALY   = 279.7259

EPHEMERIS_TYPE = 0
CLASSIFICATION_TYPE = U
NORAD_CAT_ID   = 67648
ELEMENT_SET_NO = 999
REV_AT_EPOCH   = 332
BSTAR          = .32320647E-2
MEAN_MOTION_DOT = .517662E-2
MEAN_MOTION_DDOT = 0

CCSDS_OMM_VERS = 2.0
CREATION_DATE  = 
ORIGINATOR     = 

OBJECT_NAME    = STARLINK-36342
OBJECT_ID      = 2026-022B
CENTER_NAME    = EARTH
REF_FRAME      = TEME
TIME_SYSTEM    = UTC
MEAN_ELEMENT_THEORY = SGP/SGP4

EPOCH          = 2026-02-23T13:24:44.765280
MEAN_MOTION    = 15.75276750
ECCENTRICITY   = .00017958
INCLINATION    = 97.2840
RA_OF_ASC_NODE = 87.8269
ARG_OF_PERICENTER = 69.7433
MEAN_ANOMALY   = 290.4025

EPHEMERIS_TYPE = 0
CLASSIFICATION_TYPE = U
NORAD_CAT_ID   = 67649
ELEMENT_SET_NO = 999
REV_AT_EPOCH   = 332
BSTAR          = .20813236E-2
MEAN_MOTION_DOT = .323581E-2
MEAN_MOTION_DDOT = 0

CCSDS_OMM_VERS = 2.0
CREATION_DATE  = 
ORIGINATOR     = 

OBJECT_NAME    = STARLINK-36703
OBJECT_ID      = 2026-022C
CENTER_NAME    = EARTH
REF_FRAME      = TEME
TIME_SYSTEM    = UTC
MEAN_ELEMENT_THEORY = SGP/SGP4

EPOCH          = 2026-02-23T13:23:14.595648
MEAN_MOTION    = 15.75314341
ECCENTRICITY   = .00017068
INCLINATION    = 97.2838
RA_OF_ASC_NODE = 87.8287
ARG_OF_PERICENTER = 61.3330
MEAN_ANOMALY   = 298.8106

EPHEMERIS_TYPE = 0
CLASSIFICATION_TYPE = U
NORAD_CAT_ID   = 67650
ELEMENT_SET_NO = 999
REV_AT_EPOCH   = 332
BSTAR          = .27639078E-2
MEAN_MOTION_DOT = .436239E-2
MEAN_MOTION_DDOT = 0

CCSDS_OMM_VERS = 2.0
CREATION_DATE  = 
ORIGINATOR     = 

OBJECT_NAME    = STARLINK-36696
OBJECT_ID      = 2026-022D
CENTER_NAME    = EARTH
REF_FRAME      = TEME
TIME_SYSTEM    = UTC
MEAN_ELEMENT_THEORY = SGP/SGP4

EPOCH          = 2026-02-23T08:46:14.142144
MEAN_MOTION    = 15.75274763
ECCENTRICITY   = .00023551
INCLINATION    = 97.2836
RA_OF_ASC_NODE = 87.6311
ARG_OF_PERICENTER = 105.5644
MEAN_ANOMALY   = 254.5882

EPHEMERIS_TYPE = 0
CLASSIFICATION_TYPE = U
NORAD_CAT_ID   = 67651
ELEMENT_SET_NO = 999
REV_AT_EPOCH   = 329
BSTAR          = .2417388E-2
MEAN_MOTION_DOT = .378262E-2
MEAN_MOTION_DDOT = 0

CCSDS_OMM_VERS = 2.0
CREATION_DATE  = 
ORIGINATOR     = 

OBJECT_NAME    = STARLINK-36699
OBJECT_ID      = 2026-022E
CENTER_NAME    = EARTH
REF_FRAME      = TEME
TIME_SYSTEM    = UTC
MEAN_ELEMENT_THEORY = SGP/SGP4

EPOCH          = 2026-02-23T13:19:39.457056
MEAN_MOTION    = 15.75277808
ECCENTRICITY   = .00008655
INCLINATION    = 97.2839
RA_OF_ASC_NODE = 87.8321
ARG_OF_PERICENTER = 359.5970
MEAN_ANOMALY   = 0.5294

EPHEMERIS_TYPE = 0
CLASSIFICATION_TYPE = U
NORAD_CAT_ID   = 67652
ELEMENT_SET_NO = 999
REV_AT_EPOCH   = 332
BSTAR          = .23961744E-2
MEAN_MOTION_DOT = .374857E-2
MEAN_MOTION_DDOT = 0

CCSDS_OMM_VERS = 2.0
CREATION_DATE  = 
ORIGINATOR     = 

OBJECT_NAME    = STARLINK-36694
OBJECT_ID      = 2026-022F
CENTER_NAME    = EARTH
REF_FRAME      = TEME
TIME_SYSTEM    = UTC
MEAN_ELEMENT_THEORY = SGP/SGP4

EPOCH          = 2026-02-23T13:16:36.714144
MEAN_MOTION    = 15.75230797
ECCENTRICITY   = .00006765
INCLINATION    = 97.2836
RA_OF_ASC_NODE = 87.8352
ARG_OF_PERICENTER = 2.2955
MEAN_ANOMALY   = 357.8313

EPHEMERIS_TYPE = 0
CLASSIFICATION_TYPE = U
NORAD_CAT_ID   = 67653
ELEMENT_SET_NO = 999
REV_AT_EPOCH   = 332
BSTAR          = .18165247E-2
MEAN_MOTION_DOT = .280407E-2
MEAN_MOTION_DDOT = 0

CCSDS_OMM_VERS = 2.0
CREATION_DATE  = 
ORIGINATOR     = 

OBJECT_NAME    = STARLINK-36620
OBJECT_ID      = 2026-022G
CENTER_NAME    = EARTH
REF_FRAME      = TEME
TIME_SYSTEM    = UTC
MEAN_ELEMENT_THEORY = SGP/SGP4

EPOCH          = 2026-02-23T13:16:06.222720
MEAN_MOTION    = 15.75251890
ECCENTRICITY   = .0000697
INCLINATION    = 97.2842
RA_OF_ASC_NODE = 87.8351
ARG_OF_PERICENTER = 5.0189
MEAN_ANOMALY   = 355.1083

EPHEMERIS_TYPE = 0
CLASSIFICATION_TYPE = U
NORAD_CAT_ID   = 67654
ELEMENT_SET_NO = 999
REV_AT_EPOCH   = 332
BSTAR          = .22319979E-2
MEAN_MOTION_DOT = .347651E-2
MEAN_MOTION_DDOT = 0

CCSDS_OMM_VERS = 2.0
CREATION_DATE  = 
ORIGINATOR     = 

OBJECT_NAME    = STARLINK-36720
OBJECT_ID      = 2026-022H
CENTER_NAME    = EARTH
REF_FRAME      = TEME
TIME_SYSTEM    = UTC
MEAN_ELEMENT_THEORY = SGP/SGP4

EPOCH          = 2026-02-23T13:13:33.812256
MEAN_MOTION    = 15.75241894
ECCENTRICITY   = .00006009
INCLINATION    = 97.2839
RA_OF_ASC_NODE = 87.8378
ARG_OF_PERICENTER = 34.6526
MEAN_ANOMALY   = 325.4778

EPHEMERIS_TYPE = 0
CLASSIFICATION_TYPE = U
NORAD_CAT_ID   = 67655
ELEMENT_SET_NO = 999
REV_AT_EPOCH   = 332
BSTAR          = .20958751E-2
MEAN_MOTION_DOT = .325442E-2
MEAN_MOTION_DDOT = 0

CCSDS_OMM_VERS = 2.0
CREATION_DATE  = 
ORIGINATOR     = 

OBJECT_NAME    = STARLINK-36688
OBJECT_ID      = 2026-022J
CENTER_NAME    = EARTH
REF_FRAME      = TEME
TIME_SYSTEM    = UTC
MEAN_ELEMENT_THEORY = SGP/SGP4

EPOCH          = 2026-02-23T13:12:32.303232
MEAN_MOTION    = 15.75282267
ECCENTRICITY   = .00011761
INCLINATION    = 97.2840
RA_OF_ASC_NODE = 87.8379
ARG_OF_PERICENTER = 274.6341
MEAN_ANOMALY   = 85.4790

EPHEMERIS_TYPE = 0
CLASSIFICATION_TYPE = U
NORAD_CAT_ID   = 67656
ELEMENT_SET_NO = 999
REV_AT_EPOCH   = 332
BSTAR          = .17405273E-2
MEAN_MOTION_DOT = .268895E-2
MEAN_MOTION_DDOT = 0

CCSDS_OMM_VERS = 2.0
CREATION_DATE  = 
ORIGINATOR     = 

OBJECT_NAME    = STARLINK-36706
OBJECT_ID      = 2026-022K
CENTER_NAME    = EARTH
REF_FRAME      = TEME
TIME_SYSTEM    = UTC
MEAN_ELEMENT_THEORY = SGP/SGP4

EPOCH          = 2026-02-23T13:10:30.941472
MEAN_MOTION    = 15.75203638
ECCENTRICITY   = .00007012
INCLINATION    = 97.2840
RA_OF_ASC_NODE = 87.8391
ARG_OF_PERICENTER = 102.2905
MEAN_ANOMALY   = 257.8438

EPHEMERIS_TYPE = 0
CLASSIFICATION_TYPE = U
NORAD_CAT_ID   = 67657
ELEMENT_SET_NO = 999
REV_AT_EPOCH   = 332
BSTAR          = .15631208E-2
MEAN_MOTION_DOT = .239832E-2
MEAN_MOTION_DDOT = 0

CCSDS_OMM_VERS = 2.0
CREATION_DATE  = 
ORIGINATOR     = 

OBJECT_NAME    = STARLINK-36701
OBJECT_ID      = 2026-022L
CENTER_NAME    = EARTH
REF_FRAME      = TEME
TIME_SYSTEM    = UTC
MEAN_ELEMENT_THEORY = SGP/SGP4

EPOCH          = 2026-02-23T13:08:58.975584
MEAN_MOTION    = 15.75267177
ECCENTRICITY   = .00012032
INCLINATION    = 97.2839
RA_OF_ASC_NODE = 87.8413
ARG_OF_PERICENTER = 292.4562
MEAN_ANOMALY   = 67.6576

EPHEMERIS_TYPE = 0
CLASSIFICATION_TYPE = U
NORAD_CAT_ID   = 67658
ELEMENT_SET_NO = 999
REV_AT_EPOCH   = 332
BSTAR          = .16279321E-2
MEAN_MOTION_DOT = .250789E-2
MEAN_MOTION_DDOT = 0

CCSDS_OMM_VERS = 2.0
CREATION_DATE  = 
ORIGINATOR     = 

OBJECT_NAME    = STARLINK-36642
OBJECT_ID      = 2026-022M
CENTER_NAME    = EARTH
REF_FRAME      = TEME
TIME_SYSTEM    = UTC
MEAN_ELEMENT_THEORY = SGP/SGP4

EPOCH          = 2026-02-23T13:07:28.093152
MEAN_MOTION    = 15.75220461
ECCENTRICITY   = .00010682
INCLINATION    = 97.2840
RA_OF_ASC_NODE = 87.8434
ARG_OF_PERICENTER = 71.6320
MEAN_ANOMALY   = 288.5061

EPHEMERIS_TYPE = 0
CLASSIFICATION_TYPE = U
NORAD_CAT_ID   = 67659
ELEMENT_SET_NO = 999
REV_AT_EPOCH   = 332
BSTAR          = .17793545E-2
MEAN_MOTION_DOT = .274341E-2
MEAN_MOTION_DDOT = 0

