STARLINK-36719          
1 67648U 26022A   26054.55954679  .00517662  00000+0  32321-2 0  9999
2 67648  97.2832  87.8264 0002063  80.4239 279.7259 15.75428928  3326
STARLINK-36342          
1 67649U 26022B   26054.55885145  .00323581  00000+0  20813-2 0  9999
2 67649  97.2840  87.8269 0001795  69.7433 290.4025 15.75276750  3323
STARLINK-36703          
1 67650U 26022C   26054.55780782  .00436239  00000+0  27639-2 0  9990
2 67650  97.2838  87.8287 0001706  61.3330 298.8106 15.75314341  3329
STARLINK-36696          
1 67651U 26022D   26054.36544146  .00378262  00000+0  24174-2 0  9994
2 67651  97.2836  87.6311 0002355 105.5644 254.5882 15.75274763  3293
STARLINK-36699          
1 67652U 26022E   26054.55531779  .00374857  00000+0  23962-2 0  9994
2 67652  97.2839  87.8321 0000865 359.5970   0.5294 15.75277808  3320
STARLINK-36694          
1 67653U 26022F   26054.55320271  .00280407  00000+0  18165-2 0  9994
2 67653  97.2836  87.8352 0000676   2.2955 357.8313 15.75230797  3323
STARLINK-36620          
1 67654U 26022G   26054.55284980  .00347651  00000+0  22320-2 0  9994
2 67654  97.2842  87.8351 0000697   5.0189 355.1083 15.75251890  3325
STARLINK-36720          
1 67655U 26022H   26054.55108579  .00325442  00000+0  20959-2 0  9994
2 67655  97.2839  87.8378 0000600  34.6526 325.4778 15.75241894  3322
STARLINK-36688          
1 67656U 26022J   26054.55037388  .00268895  00000+0  17405-2 0  9994
2 67656  97.2840  87.8379 0001176 274.6341  85.4790 15.75282267  3322
STARLINK-36706          
1 67657U 26022K   26054.54896923  .00239832  00000+0  15631-2 0  9990
2 67657  97.2840  87.8391 0000701 102.2905 257.8438 15.75203638  3321
STARLINK-36701          
1 67658U 26022L   26054.54790481  .00250789  00000+0  16279-2 0  9996
2 67658  97.2839  87.8413 0001203 292.4562  67.6576 15.75267177  3322
STARLINK-36642          
1 67659U 26022M   26054.54685293  .00274341  00000+0  17794-2 0  9994
2 67659  97.2840  87.8434 0001068  71.6320 288.5061 15.75220461  3324
